{
    "links": {
        "self": "http://www.neowsapp.com/rest/v1/neo/3632077?api_key=iIulBulltgU6a56xZRHN4H3l9WmuAYTsLGpBGhQ2"
    },
    "id": "3632077",
    "neo_reference_id": "3632077",
    "name": "(2013 ED68)",
    "designation": "2013 ED68",
    "nasa_jpl_url": "http://ssd.jpl.nasa.gov/sbdb.cgi?sstr=3632077",
    "absolute_magnitude_h": 28.0,
    "estimated_diameter": {
        "kilometers": {
            "estimated_diameter_min": 0.0066765941,
            "estimated_diameter_max": 0.0149293183
        },
        "meters": {
            "estimated_diameter_min": 6.676594135,
            "estimated_diameter_max": 14.9293183439
        },
        "miles": {
            "estimated_diameter_min": 0.004148642,
            "estimated_diameter_max": 0.0092766455
        },
        "feet": {
            "estimated_diameter_min": 21.9048371017,
            "estimated_diameter_max": 48.9807047955
        }
    },
    "is_potentially_hazardous_asteroid": false,
    "close_approach_data": [
        {
            "close_approach_date": "2000-06-16",
            "close_approach_date_full": "2000-Jun-16 21:29",
            "epoch_date_close_approach": 961190940000,
            "relative_velocity": {
                "kilometers_per_second": "14.9654539745",
                "kilometers_per_hour": "53875.6343080801",
                "miles_per_hour": "33476.2239954846"
            },
            "miss_distance": {
                "astronomical": "0.2790345426",
                "lunar": "108.5444370714",
                "kilometers": "41742973.229384262",
                "miles": "25937880.8092243356"
            },
            "orbiting_body": "Earth"
        },
        {
            "close_approach_date": "2002-02-06",
            "close_approach_date_full": "2002-Feb-06 15:27",
            "epoch_date_close_approach": 1013009220000,
            "relative_velocity": {
                "kilometers_per_second": "21.032841655",
                "kilometers_per_hour": "75718.2299578931",
                "miles_per_hour": "47048.3634980031"
            },
            "miss_distance": {
                "astronomical": "0.4781796187",
                "lunar": "186.0118716743",
                "kilometers": "71534652.434932169",
                "miles": "44449571.8690311722"
            },
            "orbiting_body": "Earth"
        },
        {
            "close_approach_date": "2013-03-16",
            "close_approach_date_full": "2013-Mar-16 02:34",
            "epoch_date_close_approach": 1363401240000,
            "relative_velocity": {
                "kilometers_per_second": "7.6213347201",
                "kilometers_per_hour": "27436.804992377",
                "miles_per_hour": "17048.1636354022"
            },
            "miss_distance": {
                "astronomical": "0.0061252746",
                "lunar": "2.3827318194",
                "kilometers": "916328.033325102",
                "miles": "569379.8374143276"
            },
            "orbiting_body": "Moon"
        },
        {
            "close_approach_date": "2013-03-16",
            "close_approach_date_full": "2013-Mar-16 02:37",
            "epoch_date_close_approach": 1363401420000,
            "relative_velocity": {
                "kilometers_per_second": "6.6533524069",
                "kilometers_per_hour": "23952.0686648938",
                "miles_per_hour": "14882.883999028"
            },
            "miss_distance": {
                "astronomical": "0.0035859847",
                "lunar": "1.3949480483",
                "kilometers": "536455.672972589",
                "miles": "333338.0980921682"
            },
            "orbiting_body": "Earth"
        }
    ],
    "orbital_data": {
        "orbit_id": "6",
        "orbit_determination_date": "2017-04-06 08:46:29",
        "first_observation_date": "2013-03-13",
        "last_observation_date": "2013-03-15",
        "data_arc_in_days": 2,
        "observations_used": 31,
        "orbit_uncertainty": "6",
        "minimum_orbit_intersection": ".00171811",
        "jupiter_tisserand_invariant": "4.516",
        "epoch_osculation": "2459000.5",
        "eccentricity": ".3489973043554804",
        "semi_major_axis": "1.479833645351618",
        "inclination": "1.097442940822227",
        "ascending_node_longitude": "351.1862477509545",
        "orbital_period": "657.5333311584602",
        "perihelion_distance": ".9633756922293591",
        "perihelion_argument": "213.9994696647827",
        "aphelion_distance": "1.996291598473876",
        "perihelion_time": "2459022.689340835873",
        "mean_anomaly": "347.8513189790083",
        "mean_motion": ".5475007622286495",
        "equinox": "J2000",
        "orbit_class": {
            "orbit_class_type": "APO",
            "orbit_class_description": "Near-Earth asteroid orbits which cross the Earth’s orbit similar to that of 1862 Apollo",
            "orbit_class_range": "a (semi-major axis) > 1.0 AU; q (perihelion) < 1.017 AU"
        }
    },
    "is_sentry_object": false
}